LYNK TOWER 6            
1 59123U 24043AB  26068.89488777  .00011440  00000+0  40142-3 0  9996
2 59123  97.5426 204.1954 0009749 232.0253 128.0107 15.29548678111845
STARLINK-33710          
1 63434U 25069B   26068.44239611  .00018471  00000+0  63433-3 0  9996
2 63434  53.1581 143.8621 0001158  74.9233 285.1896 15.30193173 53362
